CCSDS_OMM_VERS = 2.0
CREATION_DATE  = 
ORIGINATOR     = 

OBJECT_NAME    = HULIANWANG DIGUI-111
OBJECT_ID      = 2025-285G
CENTER_NAME    = EARTH
REF_FRAME      = TEME
TIME_SYSTEM    = UTC
MEAN_ELEMENT_THEORY = SGP/SGP4

EPOCH          = 2025-12-16T16:20:37.752864
MEAN_MOTION    = 14.04579189
ECCENTRICITY   = .00066737
INCLINATION    = 50.0126
RA_OF_ASC_NODE = 101.1554
ARG_OF_PERICENTER = 307.6812
MEAN_ANOMALY   = 52.3487

EPHEMERIS_TYPE = 0
CLASSIFICATION_TYPE = U
NORAD_CAT_ID   = 66921
ELEMENT_SET_NO = 999
REV_AT_EPOCH   = 146
BSTAR          = -.8102427E-5
MEAN_MOTION_DOT = -.165E-5
MEAN_MOTION_DDOT = 0

CCSDS_OMM_VERS = 2.0
CREATION_DATE  = 
ORIGINATOR     = 

OBJECT_NAME    = HULIANWANG DIGUI-112
OBJECT_ID      = 2025-285H
CENTER_NAME    = EARTH
REF_FRAME      = TEME
TIME_SYSTEM    = UTC
MEAN_ELEMENT_THEORY = SGP/SGP4

EPOCH          = 2025-12-17T07:41:18.875904
MEAN_MOTION    = 14.04783577
ECCENTRICITY   = .00065795
INCLINATION    = 50.0088
RA_OF_ASC_NODE = 98.5330
ARG_OF_PERICENTER = 318.1034
MEAN_ANOMALY   = 41.9367

EPHEMERIS_TYPE = 0
CLASSIFICATION_TYPE = U
NORAD_CAT_ID   = 66922
ELEMENT_SET_NO = 999
REV_AT_EPOCH   = 155
BSTAR          = .4115038E-5
MEAN_MOTION_DOT = -.145E-5
MEAN_MOTION_DDOT = 0

CCSDS_OMM_VERS = 2.0
CREATION_DATE  = 
ORIGINATOR     = 

OBJECT_NAME    = HULIANWANG DIGUI-113
OBJECT_ID      = 2025-285J
CENTER_NAME    = EARTH
REF_FRAME      = TEME
TIME_SYSTEM    = UTC
MEAN_ELEMENT_THEORY = SGP/SGP4

EPOCH          = 2025-12-17T07:40:11.590176
MEAN_MOTION    = 14.04809911
ECCENTRICITY   = .00057999
INCLINATION    = 50.0149
RA_OF_ASC_NODE = 98.5270
ARG_OF_PERICENTER = 300.6244
MEAN_ANOMALY   = 59.4089

EPHEMERIS_TYPE = 0
CLASSIFICATION_TYPE = U
NORAD_CAT_ID   = 66923
ELEMENT_SET_NO = 999
REV_AT_EPOCH   = 155
BSTAR          = .90636848E-4
MEAN_MOTION_DOT = -.6E-7
MEAN_MOTION_DDOT = 0

CCSDS_OMM_VERS = 2.0
CREATION_DATE  = 
ORIGINATOR     = 

OBJECT_NAME    = STARLINK-35945
OBJECT_ID      = 2025-286A
CENTER_NAME    = EARTH
REF_FRAME      = TEME
TIME_SYSTEM    = UTC
MEAN_ELEMENT_THEORY = SGP/SGP4

EPOCH          = 2025-12-17T06:00:00.999648
MEAN_MOTION    = 15.86301635
ECCENTRICITY   = .00007238
INCLINATION    = 53.1571
RA_OF_ASC_NODE = 27.7978
ARG_OF_PERICENTER = 85.1310
MEAN_ANOMALY   = 327.3280

EPHEMERIS_TYPE = 0
CLASSIFICATION_TYPE = U
NORAD_CAT_ID   = 66925
ELEMENT_SET_NO = 999
REV_AT_EPOCH   = 271
BSTAR          = -.54815148E-2
MEAN_MOTION_DOT = -.1242533E-1
MEAN_MOTION_DDOT = 0

CCSDS_OMM_VERS = 2.0
CREATION_DATE  = 
ORIGINATOR     = 

OBJECT_NAME    = STARLINK-35942
OBJECT_ID      = 2025-286B
CENTER_NAME    = EARTH
REF_FRAME      = TEME
TIME_SYSTEM    = UTC
MEAN_ELEMENT_THEORY = SGP/SGP4

EPOCH          = 2025-12-17T06:00:00.999648
MEAN_MOTION    = 15.86350532
ECCENTRICITY   = .00008036
INCLINATION    = 53.1570
RA_OF_ASC_NODE = 27.7882
ARG_OF_PERICENTER = 88.9775
MEAN_ANOMALY   = 328.0005

EPHEMERIS_TYPE = 0
CLASSIFICATION_TYPE = U
NORAD_CAT_ID   = 66926
ELEMENT_SET_NO = 999
REV_AT_EPOCH   = 271
BSTAR          = -.54985768E-2
MEAN_MOTION_DOT = -.1248676E-1
MEAN_MOTION_DDOT = 0

CCSDS_OMM_VERS = 2.0
CREATION_DATE  = 
ORIGINATOR     = 

OBJECT_NAME    = STARLINK-35943
OBJECT_ID      = 2025-286C
CENTER_NAME    = EARTH
REF_FRAME      = TEME
TIME_SYSTEM    = UTC
MEAN_ELEMENT_THEORY = SGP/SGP4

EPOCH          = 2025-12-17T06:00:00.999648
MEAN_MOTION    = 15.86381459
ECCENTRICITY   = .00007702
INCLINATION    = 53.1571
RA_OF_ASC_NODE = 27.7842
ARG_OF_PERICENTER = 84.2493
MEAN_ANOMALY   = 334.7374

EPHEMERIS_TYPE = 0
CLASSIFICATION_TYPE = U
NORAD_CAT_ID   = 66927
ELEMENT_SET_NO = 999
REV_AT_EPOCH   = 271
BSTAR          = -.55143272E-2
MEAN_MOTION_DOT = -.1253522E-1
MEAN_MOTION_DDOT = 0

CCSDS_OMM_VERS = 2.0
CREATION_DATE  = 
ORIGINATOR     = 

OBJECT_NAME    = STARLINK-35944
OBJECT_ID      = 2025-286D
CENTER_NAME    = EARTH
REF_FRAME      = TEME
TIME_SYSTEM    = UTC
MEAN_ELEMENT_THEORY = SGP/SGP4

EPOCH          = 2025-12-17T06:00:00.999648
MEAN_MOTION    = 15.86322572
ECCENTRICITY   = .00007347
INCLINATION    = 53.1571
RA_OF_ASC_NODE = 27.7925
ARG_OF_PERICENTER = 84.7249
MEAN_ANOMALY   = 330.1970

EPHEMERIS_TYPE = 0
CLASSIFICATION_TYPE = U
NORAD_CAT_ID   = 66928
ELEMENT_SET_NO = 999
REV_AT_EPOCH   = 271
BSTAR          = -.548588E-2
MEAN_MOTION_DOT = -.1244556E-1
MEAN_MOTION_DDOT = 0

CCSDS_OMM_VERS = 2.0
CREATION_DATE  = 
ORIGINATOR     = 

OBJECT_NAME    = STARLINK-36169
OBJECT_ID      = 2025-286E
CENTER_NAME    = EARTH
REF_FRAME      = TEME
TIME_SYSTEM    = UTC
MEAN_ELEMENT_THEORY = SGP/SGP4

EPOCH          = 2025-12-17T06:00:00.999648
MEAN_MOTION    = 15.86407405
ECCENTRICITY   = .00009077
INCLINATION    = 53.1570
RA_OF_ASC_NODE = 27.7795
ARG_OF_PERICENTER = 76.0669
MEAN_ANOMALY   = 345.1049

EPHEMERIS_TYPE = 0
CLASSIFICATION_TYPE = U
NORAD_CAT_ID   = 66929
ELEMENT_SET_NO = 999
REV_AT_EPOCH   = 271
BSTAR          = -.55228247E-2
MEAN_MOTION_DOT = -.1256738E-1
MEAN_MOTION_DDOT = 0

CCSDS_OMM_VERS = 2.0
CREATION_DATE  = 
ORIGINATOR     = 

OBJECT_NAME    = STARLINK-36206
OBJECT_ID      = 2025-286F
CENTER_NAME    = EARTH
REF_FRAME      = TEME
TIME_SYSTEM    = UTC
MEAN_ELEMENT_THEORY = SGP/SGP4

EPOCH          = 2025-12-17T06:00:00.999648
MEAN_MOTION    = 15.86443565
ECCENTRICITY   = .00008243
INCLINATION    = 53.1570
RA_OF_ASC_NODE = 27.7752
ARG_OF_PERICENTER = 79.7826
MEAN_ANOMALY   = 343.3510

EPHEMERIS_TYPE = 0
CLASSIFICATION_TYPE = U
NORAD_CAT_ID   = 66930
ELEMENT_SET_NO = 999
REV_AT_EPOCH   = 271
BSTAR          = -.55664678E-2
MEAN_MOTION_DOT = -.1267479E-1
MEAN_MOTION_DDOT = 0

CCSDS_OMM_VERS = 2.0
CREATION_DATE  = 
ORIGINATOR     = 

OBJECT_NAME    = STARLINK-36130
OBJECT_ID      = 2025-286G
CENTER_NAME    = EARTH
REF_FRAME      = TEME
TIME_SYSTEM    = UTC
MEAN_ELEMENT_THEORY = SGP/SGP4

EPOCH          = 2025-12-17T06:00:00.999648
MEAN_MOTION    = 15.86474845
ECCENTRICITY   = .00008348
INCLINATION    = 53.1568
RA_OF_ASC_NODE = 27.7707
ARG_OF_PERICENTER = 81.2282
MEAN_ANOMALY   = 344.1452

EPHEMERIS_TYPE = 0
CLASSIFICATION_TYPE = U
NORAD_CAT_ID   = 66931
ELEMENT_SET_NO = 999
REV_AT_EPOCH   = 271
BSTAR          = -.56102725E-2
MEAN_MOTION_DOT = -.1278044E-1
MEAN_MOTION_DDOT = 0

CCSDS_OMM_VERS = 2.0
CREATION_DATE  = 
ORIGINATOR     = 

OBJECT_NAME    = STARLINK-36177
OBJECT_ID      = 2025-286H
CENTER_NAME    = EARTH
REF_FRAME      = TEME
TIME_SYSTEM    = UTC
MEAN_ELEMENT_THEORY = SGP/SGP4

EPOCH          = 2025-12-17T06:00:00.999648
MEAN_MOTION    = 15.87043995
ECCENTRICITY   = .00004541
INCLINATION    = 53.1571
RA_OF_ASC_NODE = 27.7662
ARG_OF_PERICENTER = 75.4797
MEAN_ANOMALY   = 352.2004

EPHEMERIS_TYPE = 0
CLASSIFICATION_TYPE = U
NORAD_CAT_ID   = 66932
ELEMENT_SET_NO = 999
REV_AT_EPOCH   = 271
BSTAR          = .22677754E-2
MEAN_MOTION_DOT = .645731E-2
MEAN_MOTION_DDOT = 0

