HULIANWANG DIGUI-111    
1 66921U 25285G   25350.68099251 -.00000165  00000+0 -81024-5 0  9994
2 66921  50.0126 101.1554 0006673 307.6812  52.3487 14.04579189  1464
HULIANWANG DIGUI-112    
1 66922U 25285H   25351.32035736 -.00000145  00000+0  41150-5 0  9998
2 66922  50.0088  98.5330 0006579 318.1034  41.9367 14.04783577  1550
HULIANWANG DIGUI-113    
1 66923U 25285J   25351.31957859 -.00000006  00000+0  90637-4 0  9996
2 66923  50.0149  98.5270 0005799 300.6244  59.4089 14.04809911  1550
STARLINK-35945          
1 66925U 25286A   25351.25001157 -.01242533  00000+0 -54815-2 0  9994
2 66925  53.1571  27.7978 0000723  85.1310 327.3280 15.86301635  2715
STARLINK-35942          
1 66926U 25286B   25351.25001157 -.01248676  00000+0 -54986-2 0  9998
2 66926  53.1570  27.7882 0000803  88.9775 328.0005 15.86350532  2717
STARLINK-35943          
1 66927U 25286C   25351.25001157 -.01253522  00000+0 -55143-2 0  9991
2 66927  53.1571  27.7842 0000770  84.2493 334.7374 15.86381459  2719
STARLINK-35944          
1 66928U 25286D   25351.25001157 -.01244556  00000+0 -54859-2 0  9992
2 66928  53.1571  27.7925 0000734  84.7249 330.1970 15.86322572  2719
STARLINK-36169          
1 66929U 25286E   25351.25001157 -.01256738  00000+0 -55228-2 0  9999
2 66929  53.1570  27.7795 0000907  76.0669 345.1049 15.86407405  2718
STARLINK-36206          
1 66930U 25286F   25351.25001157 -.01267479  00000+0 -55665-2 0  9990
2 66930  53.1570  27.7752 0000824  79.7826 343.3510 15.86443565  2716
STARLINK-36130          
1 66931U 25286G   25351.25001157 -.01278044  00000+0 -56103-2 0  9999
2 66931  53.1568  27.7707 0000834  81.2282 344.1452 15.86474845  2718
STARLINK-36177          
1 66932U 25286H   25351.25001157  .00645731  00000+0  22678-2 0  9998
2 66932  53.1571  27.7662 0000454  75.4797 352.2004 15.87043995  2719
